     2.11           N: GPS NAV DATA                         RINEX VERSION / TYPE
teqc  2019Feb25                         20221121 12:24:53UTCPGM / RUN BY / DATE
OSX ker:10.11.6|Core i5|gcc 4.3 -m64|OSX ker:10.10+|=+      COMMENT
    4.6566D-09  1.4901D-08 -5.9605D-08 -1.1921D-07          ION ALPHA
    8.1920D+04  8.1920D+04 -6.5536D+04 -5.2429D+05          ION BETA
   -9.313225746155D-10-5.329070518201D-15   319488     1539 DELTA-UTC: A0,A1,T,W
                                                            END OF HEADER
 3 09  7  7  0  0  0.0 4.165545105934D-04 5.115907697473D-12 0.000000000000D+00
    4.900000000000D+01 9.218750000000D+00 5.636663361083D-09 1.366216135266D+00
    6.034970283508D-07 1.202353392728D-02 8.154660463333D-06 5.153636711121D+03
    1.728000000000D+05-2.533197402954D-07-2.309405518981D+00 1.620501279831D-07
    9.263029642137D-01 2.084687500000D+02 9.109196301332D-01-8.502139862538D-09
    4.789485215569D-10 1.000000000000D+00 1.539000000000D+03 0.000000000000D+00
    2.000000000000D+00 0.000000000000D+00-4.190951585770D-09 4.900000000000D+01
    1.656180000000D+05 4.000000000000D+00
 6 09  7  7  0  0  0.0 1.846416853368D-04 1.159605744760D-11 0.000000000000D+00
    6.900000000000D+01 1.703125000000D+01 5.400939256513D-09-2.511614646534D+00
    1.000240445137D-06 5.979373469017D-03 7.182359695435D-06 5.153696294785D+03
    1.728000000000D+05 2.607703208923D-08-2.241476361870D+00 1.303851604462D-07
    9.337079117452D-01 2.248437500000D+02-1.321906115313D+00-8.149268021152D-09
    5.525230148013D-10 1.000000000000D+00 1.539000000000D+03 0.000000000000D+00
    2.000000000000D+00 0.000000000000D+00-4.656612873077D-09 6.900000000000D+01
    1.656180000000D+05 4.000000000000D+00
 7 09  7  7  0  0  0.0 1.570442691445D-05-6.821210263297D-13 0.000000000000D+00
    5.300000000000D+01-8.231250000000D+01 4.506259132352D-09-4.312900472473D-03
   -4.226341843605D-06 2.799313631840D-03 1.447275280952D-06 5.153663732529D+03
    1.728000000000D+05 6.146728992462D-08 1.994867742294D+00 2.793967723846D-08
    9.677616324822D-01 3.536562500000D+02 2.878066442654D+00-8.309989001540D-09
   -5.928818387655D-11 1.000000000000D+00 1.539000000000D+03 0.000000000000D+00
    2.000000000000D+00 0.000000000000D+00-1.071020960808D-08 5.300000000000D+01
    1.656180000000D+05 4.000000000000D+00
25 09  7  7  0  0  0.0 4.964782856405D-04 1.773514668457D-11 0.000000000000D+00
    7.400000000000D+01-6.565625000000D+01 4.444113686602D-09-1.834825016444D+00
   -3.034248948097D-06 1.129966147710D-02 9.164214134216D-07 5.153648530960D+03
    1.728000000000D+05-8.381903171539D-08 1.900402961377D+00 3.222376108170D-07
    9.699298423854D-01 3.674375000000D+02-1.209635187075D+00-8.246057767119D-09
   -3.000124967247D-11 1.000000000000D+00 1.539000000000D+03 0.000000000000D+00
    2.800000000000D+00 0.000000000000D+00-7.450580596924D-09 7.400000000000D+01
    1.656180000000D+05 4.000000000000D+00
19 09  7  7  0  0  0.0 1.997686922550D-05-1.364242052659D-12 0.000000000000D+00
    1.300000000000D+01 1.403125000000D+01 4.991279335390D-09 2.103833202743D+00
    1.018866896629D-06 5.724964197725D-03 6.815418601036D-06 5.153619852066D+03
    1.728000000000D+05 1.415610313416D-07-2.121129442652D+00 1.601874828339D-07
    9.572187505403D-01 2.449687500000D+02-3.322913511200D-01-8.065335953616D-09
    3.600149960697D-10 1.000000000000D+00 1.539000000000D+03 0.000000000000D+00
    2.000000000000D+00 0.000000000000D+00-1.443549990654D-08 1.300000000000D+01
    1.656180000000D+05 4.000000000000D+00
 8 09  7  7  0  0  0.0-2.107126638293D-04-1.705302565824D-12 0.000000000000D+00
    5.700000000000D+01-8.440625000000D+01 4.011238512756D-09-7.309550380227D-01
   -4.546716809273D-06 1.070101768710D-02 2.067536115646D-06 5.153637847900D+03
    1.728000000000D+05 1.378357410431D-07 2.056079707698D+00-1.788139343262D-07
    9.890025563834D-01 3.495000000000D+02 2.996660088201D+00-8.056049852527D-09
   -6.071681481333D-12 1.000000000000D+00 1.539000000000D+03 0.000000000000D+00
    4.000000000000D+00 0.000000000000D+00-3.725290298462D-09 5.700000000000D+01
    1.656180000000D+05 4.000000000000D+00
18 09  7  7  0  0  0.0-4.213768988848D-05 3.183231456205D-12 0.000000000000D+00
    6.600000000000D+01 7.143750000000D+01 4.384111187257D-09-2.253856313431D+00
    3.678724169731D-06 1.063920347951D-02 1.009926199913D-05 5.153610239029D+03
    1.728000000000D+05 1.676380634308D-08-7.153695886434D-02-1.341104507446D-07
    9.421583556258D-01 1.764375000000D+02-2.408986472596D+00-7.640675407657D-09
   -2.210806374674D-10 1.000000000000D+00 1.539000000000D+03 0.000000000000D+00
    2.000000000000D+00 0.000000000000D+00-1.071020960808D-08 6.600000000000D+01
    1.663920000000D+05 4.000000000000D+00
15 09  7  7  0  0  0.0-3.065587952733D-04-2.728484105319D-12 0.000000000000D+00
    6.400000000000D+01 1.066562500000D+02 4.477686513616D-09 2.358399520281D+00
    5.478039383888D-06 1.465350738727D-03 3.345310688019D-06 5.153636787415D+03
    1.728000000000D+05 1.862645149231D-09 9.319388063749D-01 3.725290298462D-09
    9.562042534253D-01 3.112500000000D+02-4.697991274194D-01-8.190698318319D-09
    2.685826161155D-10 1.000000000000D+00 1.539000000000D+03 0.000000000000D+00
    2.000000000000D+00 0.000000000000D+00-9.778887033463D-09 6.400000000000D+01
    1.674420000000D+05 4.000000000000D+00
22 09  7  7  0  0  0.0 1.960513181984D-04-9.094947017729D-13 0.000000000000D+00
    4.500000000000D+01 7.740625000000D+01 4.416255383335D-09 3.001427738221D+00
    3.978610038757D-06 5.146219395101D-03 1.060962677002D-05 5.153663125992D+03
    1.728000000000D+05 2.235174179077D-08-6.593766478555D-02 9.313225746155D-09
    9.398242990887D-01 1.633750000000D+02-1.894091548036D+00-7.720321582383D-09
   -3.060841782060D-10 1.000000000000D+00 1.539000000000D+03 0.000000000000D+00
    2.800000000000D+00 0.000000000000D+00-1.769512891769D-08 4.500000000000D+01
    1.689120000000D+05 4.000000000000D+00
28 09  7  7  0  0  0.0-2.583675086498D-05-1.136868377216D-13 0.000000000000D+00
    9.800000000000D+01-1.003750000000D+02 4.130529195978D-09-3.037520436141D+00
   -5.265697836876D-06 1.493991783354D-02 9.955838322639D-06 5.153655403137D+03
    1.728000000000D+05 2.067536115646D-07 3.072212047678D+00-2.328306436539D-07
    9.674535258426D-01 1.894375000000D+02-2.022922596286D+00-7.461382225090D-09
    2.196520065306D-10 1.000000000000D+00 1.539000000000D+03 0.000000000000D+00
    2.000000000000D+00 0.000000000000D+00-1.071020960808D-08 9.800000000000D+01
    1.689120000000D+05 4.000000000000D+00
11 09  7  7  0  0  0.0-9.549781680107D-06-1.591615728103D-12 0.000000000000D+00
    8.600000000000D+01-1.109375000000D+01 6.744923810293D-09-1.882459387532D-01
   -5.792826414108D-07 9.475643280894D-03 4.217028617859D-06 5.153678230286D+03
    1.728000000000D+05 9.313225746155D-09-1.363008791244D+00 1.173466444016D-07
    8.888139870588D-01 2.547187500000D+02 7.031929300309D-01-9.181096715245D-09
   -3.771585673111D-10 1.000000000000D+00 1.539000000000D+03 0.000000000000D+00
    2.000000000000D+00 0.000000000000D+00-1.164153218269D-08 8.600000000000D+01
    1.704420000000D+05 4.000000000000D+00
